start=new Date('2021-10-27T00:00:00.000Z').valueOf();
sats=[{"TLE_LINE1":"1 47416U 21006D   21299.12985107  .00000525  00000-0  32168-4 0  9993","BSTAR":"0.00003216800000","SEMIMAJOR_AXIS":"6901.138","COUNTRY_CODE":"US","DECAY_DATE":null,"OBJECT_TYPE":"PAYLOAD","CENTER_NAME":"EARTH","APOAPSIS":"525.895","ELEMENT_SET_NO":"999","FILE":"3184921","MEAN_MOTION_DDOT":"0.0000000000000","INCLINATION":"97.4822","REV_AT_EPOCH":"4185","OBJECT_NAME":"STARLINK-2202","SITE":"AFETR","MEAN_ELEMENT_THEORY":"SGP4","EPOCH":"2021-10-26T03:06:59.132448","CLASSIFICATION_TYPE":"U","ECCENTRICITY":"0.00041910","TLE_LINE2":"2 47416  97.4822 358.7206 0004191 115.2993 244.8674 15.14334086 41850","MEAN_ANOMALY":"244.8674","RA_OF_ASC_NODE":"358.7206","PERIAPSIS":"520.111","EPHEMERIS_TYPE":"0","NORAD_CAT_ID":"47416","OBJECT_ID":"2021-006D","ARG_OF_PERICENTER":"115.2993","GP_ID":"188200447","LAUNCH_DATE":"2021-01-24","TIME_SYSTEM":"UTC","RCS_SIZE":"LARGE","MEAN_MOTION_DOT":"0.00000525","MEAN_MOTION":"15.14334086","PERIOD":"95.091","REF_FRAME":"TEME"},{"RA_OF_ASC_NODE":"358.7341","MEAN_ANOMALY":"249.2971","CLASSIFICATION_TYPE":"U","EPOCH":"2021-10-26T03:04:21.735840","ECCENTRICITY":"0.00039040","SITE":"AFETR","MEAN_ELEMENT_THEORY":"SGP4","OBJECT_NAME":"STARLINK-2203","TLE_LINE2":"2 47417  97.4821 358.7341 0003904 110.8679 249.2971 15.14336358 41856","ELEMENT_SET_NO":"999","APOAPSIS":"525.690","FILE":"3184921","MEAN_MOTION_DDOT":"0.0000000000000","INCLINATION":"97.4821","REV_AT_EPOCH":"4185","BSTAR":"0.00007608200000","SEMIMAJOR_AXIS":"6901.131","TLE_LINE1":"1 47417U 21006E   21299.12802935  .00001329  00000-0  76082-4 0  9997","CENTER_NAME":"EARTH","OBJECT_TYPE":"PAYLOAD","DECAY_DATE":null,"COUNTRY_CODE":"US","MEAN_MOTION":"15.14336358","MEAN_MOTION_DOT":"0.00001329","REF_FRAME":"TEME","PERIOD":"95.091","TIME_SYSTEM":"UTC","RCS_SIZE":"LARGE","LAUNCH_DATE":"2021-01-24","OBJECT_ID":"2021-006E","ARG_OF_PERICENTER":"110.8679","NORAD_CAT_ID":"47417","GP_ID":"188199199","EPHEMERIS_TYPE":"0","PERIAPSIS":"520.302"},{"LAUNCH_DATE":"2021-01-24","RCS_SIZE":"LARGE","TIME_SYSTEM":"UTC","MEAN_MOTION":"15.01261342","MEAN_MOTION_DOT":"0.00000380","PERIOD":"95.919","REF_FRAME":"TEME","PERIAPSIS":"559.958","EPHEMERIS_TYPE":"0","OBJECT_ID":"2021-006F","ARG_OF_PERICENTER":"134.3757","NORAD_CAT_ID":"47418","GP_ID":"188198950","SITE":"AFETR","MEAN_ELEMENT_THEORY":"SGP4","ECCENTRICITY":"0.00043940","CLASSIFICATION_TYPE":"U","EPOCH":"2021-10-26T10:37:53.674176","OBJECT_NAME":"STARLINK-2204","TLE_LINE2":"2 47418  97.4942 355.6904 0004394 134.3757 225.7828 15.01261342 41681","RA_OF_ASC_NODE":"355.6904","MEAN_ANOMALY":"225.7828","SEMIMAJOR_AXIS":"6941.143","BSTAR":"0.00003403600000","TLE_LINE1":"1 47418U 21006F   21299.44298234  .00000380  00000-0  34036-4 0  9993","OBJECT_TYPE":"PAYLOAD","CENTER_NAME":"EARTH","COUNTRY_CODE":"US","DECAY_DATE":null,"APOAPSIS":"566.058","ELEMENT_SET_NO":"999","REV_AT_EPOCH":"4168","FILE":"3184921","MEAN_MOTION_DDOT":"0.0000000000000","INCLINATION":"97.4942"},{"PERIAPSIS":"520.062","EPHEMERIS_TYPE":"0","ARG_OF_PERICENTER":"118.0228","NORAD_CAT_ID":"47419","OBJECT_ID":"2021-006G","GP_ID":"188200201","LAUNCH_DATE":"2021-01-24","TIME_SYSTEM":"UTC","RCS_SIZE":"LARGE","MEAN_MOTION":"15.14334114","MEAN_MOTION_DOT":"0.00000694","PERIOD":"95.091","REF_FRAME":"TEME","BSTAR":"0.00004143800000","SEMIMAJOR_AXIS":"6901.138","TLE_LINE1":"1 47419U 21006G   21299.12848507  .00000694  00000-0  41438-4 0  9995","OBJECT_TYPE":"PAYLOAD","CENTER_NAME":"EARTH","COUNTRY_CODE":"US","DECAY_DATE":null,"APOAPSIS":"525.944","ELEMENT_SET_NO":"999","FILE":"3184921","REV_AT_EPOCH":"4185","MEAN_MOTION_DDOT":"0.0000000000000","INCLINATION":"97.4827","SITE":"AFETR","MEAN_ELEMENT_THEORY":"SGP4","CLASSIFICATION_TYPE":"U","ECCENTRICITY":"0.00042620","EPOCH":"2021-10-26T03:05:01.110048","OBJECT_NAME":"STARLINK-2205","TLE_LINE2":"2 47419  97.4827 358.7353 0004262 118.0228 242.1435 15.14334114 41850","RA_OF_ASC_NODE":"358.7353","MEAN_ANOMALY":"242.1435"},{"RCS_SIZE":"LARGE","TIME_SYSTEM":"UTC","LAUNCH_DATE":"2021-01-24","REF_FRAME":"TEME","PERIOD":"95.092","MEAN_MOTION_DOT":"0.00001454","MEAN_MOTION":"15.14328648","EPHEMERIS_TYPE":"0","PERIAPSIS":"519.937","GP_ID":"188199948","ARG_OF_PERICENTER":"109.9148","OBJECT_ID":"2021-006H","NORAD_CAT_ID":"47420","TLE_LINE2":"2 47420  97.4821 358.7311 0004467 109.9148 250.2566 15.14328648 41857","OBJECT_NAME":"STARLINK-2206","EPOCH":"2021-10-26T03:05:40.228512","CLASSIFICATION_TYPE":"U","ECCENTRICITY":"0.00044670","SITE":"AFETR","MEAN_ELEMENT_THEORY":"SGP4","MEAN_ANOMALY":"250.2566","RA_OF_ASC_NODE":"358.7311","COUNTRY_CODE":"US","DECAY_DATE":null,"CENTER_NAME":"EARTH","OBJECT_TYPE":"PAYLOAD","TLE_LINE1":"1 47420U 21006H   21299.12893783  .00001454  00000-0  82927-4 0  9996","BSTAR":"0.00008292700000","SEMIMAJOR_AXIS":"6901.154","REV_AT_EPOCH":"4185","FILE":"3184921","MEAN_MOTION_DDOT":"0.0000000000000","INCLINATION":"97.4821","ELEMENT_SET_NO":"999","APOAPSIS":"526.102"},{"OBJECT_TYPE":"PAYLOAD","CENTER_NAME":"EARTH","COUNTRY_CODE":"US","DECAY_DATE":null,"SEMIMAJOR_AXIS":"6901.137","BSTAR":"0.00007758500000","TLE_LINE1":"1 47421U 21006J   21299.19547687  .00001357  00000-0  77585-4 0  9999","FILE":"3184921","MEAN_MOTION_DDOT":"0.0000000000000","INCLINATION":"97.4825","REV_AT_EPOCH":"4186","APOAPSIS":"526.028","ELEMENT_SET_NO":"999","TLE_LINE2":"2 47421  97.4825 358.7966 0004385 114.6899 245.4790 15.14334549 41866","MEAN_ELEMENT_THEORY":"SGP4","SITE":"AFETR","CLASSIFICATION_TYPE":"U","EPOCH":"2021-10-26T04:41:29.201568","ECCENTRICITY":"0.00043850","OBJECT_NAME":"STARLINK-2207","RA_OF_ASC_NODE":"358.7966","MEAN_ANOMALY":"245.4790","PERIAPSIS":"519.975","EPHEMERIS_TYPE":"0","GP_ID":"188198700","NORAD_CAT_ID":"47421","OBJECT_ID":"2021-006J","ARG_OF_PERICENTER":"114.6899","LAUNCH_DATE":"2021-01-24","RCS_SIZE":"LARGE","TIME_SYSTEM":"UTC","PERIOD":"95.091","REF_FRAME":"TEME","MEAN_MOTION":"15.14334549","MEAN_MOTION_DOT":"0.00001357"},{"RA_OF_ASC_NODE":"358.8139","MEAN_ANOMALY":"245.1479","TLE_LINE2":"2 47422  97.4831 358.8139 0004290 115.0199 245.1479 15.14323466 41867","ECCENTRICITY":"0.00042900","CLASSIFICATION_TYPE":"U","EPOCH":"2021-10-26T04:38:50.819136","MEAN_ELEMENT_THEORY":"SGP4","SITE":"AFETR","OBJECT_NAME":"STARLINK-2208","INCLINATION":"97.4831","FILE":"3184921","MEAN_MOTION_DDOT":"0.0000000000000","REV_AT_EPOCH":"4186","ELEMENT_SET_NO":"999","APOAPSIS":"525.996","CENTER_NAME":"EARTH","OBJECT_TYPE":"PAYLOAD","COUNTRY_CODE":"US","DECAY_DATE":null,"SEMIMAJOR_AXIS":"6901.170","BSTAR":"0.00005008300000","TLE_LINE1":"1 47422U 21006K   21299.19364374  .00000852  00000-0  50083-4 0  9993","REF_FRAME":"TEME","PERIOD":"95.092","MEAN_MOTION":"15.14323466","MEAN_MOTION_DOT":"0.00000852","TIME_SYSTEM":"UTC","RCS_SIZE":"LARGE","LAUNCH_DATE":"2021-01-24","GP_ID":"188199450","ARG_OF_PERICENTER":"115.0199","NORAD_CAT_ID":"47422","OBJECT_ID":"2021-006K","EPHEMERIS_TYPE":"0","PERIAPSIS":"520.075"},{"ARG_OF_PERICENTER":"65.8919","OBJECT_ID":"2021-009A","NORAD_CAT_ID":"47548","GP_ID":"188199964","PERIAPSIS":"546.409","EPHEMERIS_TYPE":"0","MEAN_MOTION":"15.06415512","MEAN_MOTION_DOT":"0.00001612","PERIOD":"95.591","REF_FRAME":"TEME","LAUNCH_DATE":"2021-02-04","RCS_SIZE":"LARGE","TIME_SYSTEM":"UTC","APOAPSIS":"547.923","ELEMENT_SET_NO":"999","REV_AT_EPOCH":"4049","FILE":"3184921","MEAN_MOTION_DDOT":"0.0000000000000","INCLINATION":"53.0571","SEMIMAJOR_AXIS":"6925.301","BSTAR":"0.00012701000000","TLE_LINE1":"1 47548U 21009A   21299.43733671  .00001612  00000-0  12701-3 0  9991","OBJECT_TYPE":"PAYLOAD","CENTER_NAME":"EARTH","DECAY_DATE":null,"COUNTRY_CODE":"US","RA_OF_ASC_NODE":"332.9901","MEAN_ANOMALY":"294.2184","SITE":"AFETR","MEAN_ELEMENT_THEORY":"SGP4","CLASSIFICATION_TYPE":"U","ECCENTRICITY":"0.00010930","EPOCH":"2021-10-26T10:29:45.891744","OBJECT_NAME":"STARLINK-1782","TLE_LINE2":"2 47548  53.0571 332.9901 0001093  65.8919 294.2184 15.06415512 40496"},{"ARG_OF_PERICENTER":"69.1715","OBJECT_ID":"2021-009B","NORAD_CAT_ID":"47549","GP_ID":"188198716","EPHEMERIS_TYPE":"0","PERIAPSIS":"546.223","MEAN_MOTION":"15.06411529","MEAN_MOTION_DOT":"0.00001280","PERIOD":"95.591","REF_FRAME":"TEME","TIME_SYSTEM":"UTC","RCS_SIZE":"LARGE","LAUNCH_DATE":"2021-02-04","ELEMENT_SET_NO":"999","APOAPSIS":"548.133","FILE":"3184921","MEAN_MOTION_DDOT":"0.0000000000000","INCLINATION":"53.0566","REV_AT_EPOCH":"4048","SEMIMAJOR_AXIS":"6925.313","BSTAR":"0.00010481000000","TLE_LINE1":"1 47549U 21009B   21299.36730007  .00001280  00000-0  10481-3 0  9998","CENTER_NAME":"EARTH","OBJECT_TYPE":"PAYLOAD","COUNTRY_CODE":"US","DECAY_DATE":null,"RA_OF_ASC_NODE":"333.2959","MEAN_ANOMALY":"290.9421","EPOCH":"2021-10-26T08:48:54.726048","CLASSIFICATION_TYPE":"U","ECCENTRICITY":"0.00013790","SITE":"AFETR","MEAN_ELEMENT_THEORY":"SGP4","OBJECT_NAME":"STARLINK-1806","TLE_LINE2":"2 47549  53.0566 333.2959 0001379  69.1715 290.9421 15.06411529 40486"},{"PERIOD":"95.592","REF_FRAME":"TEME","MEAN_MOTION_DOT":"0.00001684","MEAN_MOTION":"15.06397652","LAUNCH_DATE":"2021-02-04","TIME_SYSTEM":"UTC","RCS_SIZE":"LARGE","GP_ID":"188199466","NORAD_CAT_ID":"47550","OBJECT_ID":"2021-009C","ARG_OF_PERICENTER":"74.8666","PERIAPSIS":"546.147","EPHEMERIS_TYPE":"0","MEAN_ANOMALY":"285.2494","RA_OF_ASC_NODE":"322.9436","TLE_LINE2":"2 47550  53.0572 322.9436 0001551  74.8666 285.2494 15.06397652 40634","OBJECT_NAME":"STARLINK-1909","MEAN_ELEMENT_THEORY":"SGP4","SITE":"AFETR","ECCENTRICITY":"0.00015510","CLASSIFICATION_TYPE":"U","EPOCH":"2021-10-26T10:41:41.854848","INCLINATION":"53.0572","FILE":"3184921","MEAN_MOTION_DDOT":"0.0000000000000","REV_AT_EPOCH":"4063","APOAPSIS":"548.295","ELEMENT_SET_NO":"999","COUNTRY_CODE":"US","DECAY_DATE":null,"OBJECT_TYPE":"PAYLOAD","CENTER_NAME":"EARTH","TLE_LINE1":"1 47550U 21009C   21299.44562332  .00001684  00000-0  13191-3 0  9992","BSTAR":"0.00013191000000","SEMIMAJOR_AXIS":"6925.356"}];
